CALSPHERE 1             
1 00900U 64063C   26065.53658586  .00000808  00000+0  81574-3 0  9996
2 00900  90.2158  69.3785 0023577 241.0426 217.0162 13.76493185 57308
CALSPHERE 2             
1 00902U 64063E   26065.47151617  .00000028  00000+0  28364-4 0  9997
2 00902  90.2281  73.3601 0019182 159.8892  10.0122 13.52891514842377
LCS 1                   
1 01361U 65034C   26065.37635912  .00000004  00000+0 -59363-3 0  9997
2 01361  32.1429  61.1270 0013190 118.1165 242.0667  9.89309909199707
TEMPSAT 1               
1 01512U 65065E   26065.63678874  .00000039  00000+0  58813-4 0  9999
2 01512  89.9931 212.5878 0069950 175.2042 197.0926 13.33588981946386
CALSPHERE 4A            
1 01520U 65065H   26065.66190287  .00000123  00000+0  21778-3 0  9991
2 01520  89.9038 123.4997 0070513  34.6823 131.5579 13.36258588949017
OPS 5712 (P/L 160)      
1 02826U 67053A   26065.78447108  .00009610  00000+0  13986-2 0  9991
2 02826  69.9165 288.9943 0004367 226.5344 133.5440 14.76123242 51115
OPS 5712 (P/L 153)      
1 02874U 67053H   26065.43509023  .00000075  00000+0  92090-4 0  9992
2 02874  69.9764 335.5461 0009080 313.2372  46.7976 13.96811108992433
RIGIDSPHERE 2 (LCS 4)   
1 05398U 71067E   26065.81767860  .00001024  00000+0  32818-3 0  9999
2 05398  87.6271   7.2059 0058505 210.7681 149.0085 14.37737144859177
COSMOS 2493 (SKRL-756 1)
1 39490U 13078A   26065.81570927  .00005326  00000+0  40882-3 0  9992
2 39490  82.4163   1.2981 0011503 225.7288 134.2994 15.01550216662592
COSMOS 2494 (SKRL-756 2)
1 39491U 13078B   26065.59584777  .00006241  00000+0  44665-3 0  9996
2 39491  82.4159 351.3286 0015580 187.3222 172.7779 15.04174966663388
