[{"OBJECT_NAME":"CALSPHERE 1","OBJECT_ID":"1964-063C","EPOCH":"2026-03-06T12:52:41.018304","MEAN_MOTION":13.76493185,"ECCENTRICITY":0.00235772,"INCLINATION":90.2158,"RA_OF_ASC_NODE":69.3785,"ARG_OF_PERICENTER":241.0426,"MEAN_ANOMALY":217.0162,"EPHEMERIS_TYPE":0,"CLASSIFICATION_TYPE":"U","NORAD_CAT_ID":900,"ELEMENT_SET_NO":999,"REV_AT_EPOCH":5730,"BSTAR":0.0008157402,"MEAN_MOTION_DOT":8.08e-6,"MEAN_MOTION_DDOT":0},{"OBJECT_NAME":"CALSPHERE 2","OBJECT_ID":"1964-063E","EPOCH":"2026-03-06T11:18:58.997088","MEAN_MOTION":13.52891514,"ECCENTRICITY":0.00191826,"INCLINATION":90.2281,"RA_OF_ASC_NODE":73.3601,"ARG_OF_PERICENTER":159.8892,"MEAN_ANOMALY":10.0122,"EPHEMERIS_TYPE":0,"CLASSIFICATION_TYPE":"U","NORAD_CAT_ID":902,"ELEMENT_SET_NO":999,"REV_AT_EPOCH":84237,"BSTAR":2.8364223e-5,"MEAN_MOTION_DOT":2.8e-7,"MEAN_MOTION_DDOT":0},{"OBJECT_NAME":"LCS 1","OBJECT_ID":"1965-034C","EPOCH":"2026-03-06T09:01:57.427968","MEAN_MOTION":9.89309909,"ECCENTRICITY":0.00131907,"INCLINATION":32.1429,"RA_OF_ASC_NODE":61.127,"ARG_OF_PERICENTER":118.1165,"MEAN_ANOMALY":242.0667,"EPHEMERIS_TYPE":0,"CLASSIFICATION_TYPE":"U","NORAD_CAT_ID":1361,"ELEMENT_SET_NO":999,"REV_AT_EPOCH":19970,"BSTAR":-0.00059362634,"MEAN_MOTION_DOT":4.0e-8,"MEAN_MOTION_DDOT":0},{"OBJECT_NAME":"TEMPSAT 1","OBJECT_ID":"1965-065E","EPOCH":"2026-03-06T15:16:58.547136","MEAN_MOTION":13.33588981,"ECCENTRICITY":0.00699508,"INCLINATION":89.9931,"RA_OF_ASC_NODE":212.5878,"ARG_OF_PERICENTER":175.2042,"MEAN_ANOMALY":197.0926,"EPHEMERIS_TYPE":0,"CLASSIFICATION_TYPE":"U","NORAD_CAT_ID":1512,"ELEMENT_SET_NO":999,"REV_AT_EPOCH":94638,"BSTAR":5.8813205e-5,"MEAN_MOTION_DOT":3.9e-7,"MEAN_MOTION_DDOT":0},{"OBJECT_NAME":"CALSPHERE 4A","OBJECT_ID":"1965-065H","EPOCH":"2026-03-06T15:53:08.407968","MEAN_MOTION":13.36258588,"ECCENTRICITY":0.0070513,"INCLINATION":89.9038,"RA_OF_ASC_NODE":123.4997,"ARG_OF_PERICENTER":34.6823,"MEAN_ANOMALY":131.5579,"EPHEMERIS_TYPE":0,"CLASSIFICATION_TYPE":"U","NORAD_CAT_ID":1520,"ELEMENT_SET_NO":999,"REV_AT_EPOCH":94901,"BSTAR":0.00021778389,"MEAN_MOTION_DOT":1.23e-6,"MEAN_MOTION_DDOT":0},{"OBJECT_NAME":"OPS 5712 (P/L 160)","OBJECT_ID":"1967-053A","EPOCH":"2026-03-06T18:49:38.301312","MEAN_MOTION":14.76123242,"ECCENTRICITY":0.0004367,"INCLINATION":69.9165,"RA_OF_ASC_NODE":288.9943,"ARG_OF_PERICENTER":226.5344,"MEAN_ANOMALY":133.544,"EPHEMERIS_TYPE":0,"CLASSIFICATION_TYPE":"U","NORAD_CAT_ID":2826,"ELEMENT_SET_NO":999,"REV_AT_EPOCH":5111,"BSTAR":0.0013986,"MEAN_MOTION_DOT":9.61e-5,"MEAN_MOTION_DDOT":0},{"OBJECT_NAME":"OPS 5712 (P/L 153)","OBJECT_ID":"1967-053H","EPOCH":"2026-03-06T10:26:31.795872","MEAN_MOTION":13.96811108,"ECCENTRICITY":0.000908,"INCLINATION":69.9764,"RA_OF_ASC_NODE":335.5461,"ARG_OF_PERICENTER":313.2372,"MEAN_ANOMALY":46.7976,"EPHEMERIS_TYPE":0,"CLASSIFICATION_TYPE":"U","NORAD_CAT_ID":2874,"ELEMENT_SET_NO":999,"REV_AT_EPOCH":99243,"BSTAR":9.2089714e-5,"MEAN_MOTION_DOT":7.5e-7,"MEAN_MOTION_DDOT":0},{"OBJECT_NAME":"RIGIDSPHERE 2 (LCS 4)","OBJECT_ID":"1971-067E","EPOCH":"2026-03-06T19:37:27.431040","MEAN_MOTION":14.37737144,"ECCENTRICITY":0.0058505,"INCLINATION":87.6271,"RA_OF_ASC_NODE":7.2059,"ARG_OF_PERICENTER":210.7681,"MEAN_ANOMALY":149.0085,"EPHEMERIS_TYPE":0,"CLASSIFICATION_TYPE":"U","NORAD_CAT_ID":5398,"ELEMENT_SET_NO":999,"REV_AT_EPOCH":85917,"BSTAR":0.00032818,"MEAN_MOTION_DOT":1.024e-5,"MEAN_MOTION_DDOT":0},{"OBJECT_NAME":"COSMOS 2493 (SKRL-756 1)","OBJECT_ID":"2013-078A","EPOCH":"2026-03-06T19:34:37.280928","MEAN_MOTION":15.01550216,"ECCENTRICITY":0.0011503,"INCLINATION":82.4163,"RA_OF_ASC_NODE":1.2981,"ARG_OF_PERICENTER":225.7288,"MEAN_ANOMALY":134.2994,"EPHEMERIS_TYPE":0,"CLASSIFICATION_TYPE":"U","NORAD_CAT_ID":39490,"ELEMENT_SET_NO":999,"REV_AT_EPOCH":66259,"BSTAR":0.00040882,"MEAN_MOTION_DOT":5.326e-5,"MEAN_MOTION_DDOT":0},{"OBJECT_NAME":"COSMOS 2494 (SKRL-756 2)","OBJECT_ID":"2013-078B","EPOCH":"2026-03-06T14:18:01.247328","MEAN_MOTION":15.04174966,"ECCENTRICITY":0.00155804,"INCLINATION":82.4159,"RA_OF_ASC_NODE":351.3286,"ARG_OF_PERICENTER":187.3222,"MEAN_ANOMALY":172.7779,"EPHEMERIS_TYPE":0,"CLASSIFICATION_TYPE":"U","NORAD_CAT_ID":39491,"ELEMENT_SET_NO":999,"REV_AT_EPOCH":66338,"BSTAR":0.00044665248,"MEAN_MOTION_DOT":6.241e-5,"MEAN_MOTION_DDOT":0}]
